NORAD_CAT_ID,OBJECT_NAME,OBJECT_TYPE,EPOCH,MEAN_MOTION,ECCENTRICITY,INCLINATION,RA_OF_ASC_NODE,ARG_OF_PERICENTER,MEAN_ANOMALY,BSTAR,MEAN_MOTION_DOT,MEAN_MOTION_DDOT,TLE_LINE0,TLE_LINE1,TLE_LINE2,SEMIMAJOR_AXIS,PERIOD,APOGEE,PERIGEE,DECAYED
53416.0,STARLINK-4480,PAYLOAD,2022-11-16 19:11:45,15.08838169,0.0001776999999999,53.2176,141.0274,47.7525,312.3618,4.8703e-05,4.87e-06,0.0,0 STARLINK-4480,1 53416U 22097AE  22320.79983458  .00000487  00000-0  48703-4 0  9996,2 53416  53.2176 141.0274 0001777  47.7525 312.3618 15.08838169 15667,6917.886,95.438,540.98,538.5219999999998,0.0
53416.0,STARLINK-4480,PAYLOAD,2022-11-17 04:44:03,15.08853764,0.0001805,53.2182,139.2423,50.0871,310.028,0.00012501,1.703e-05,0.0,0 STARLINK-4480,1 53416U 22097AE  22321.19726159  .00001703  00000-0  12501-3 0  9992,2 53416  53.2182 139.2423 0001805  50.0871 310.0280 15.08853764 15727,6917.8380000000025,95.437,540.952,538.455,0.0
53416.0,STARLINK-4480,PAYLOAD,2022-11-17 12:40:59,15.08839307,0.0001681,53.2177,137.7581,53.1804,306.9342,0.00014896,2.083e-05,0.0,0 STARLINK-4480,1 53416U 22097AE  22321.52846804  .00002083  00000-0  14896-3 0  9990,2 53416  53.2177 137.7581 0001681  53.1804 306.9342 15.08839307 16238,6917.8830000000025,95.438,540.91,538.585,0.0
53416.0,STARLINK-4480,PAYLOAD,2022-11-17 19:02:32,15.0883612,0.0001706,53.2179,136.5676,52.6342,307.4806,0.00010367,1.362e-05,0.0,0 STARLINK-4480,1 53416U 22097AE  22321.79343194  .00001362  00000-0  10367-3 0  9991,2 53416  53.2179 136.5676 0001706  52.6342 307.4806 15.08836120 15815,6917.892,95.438,540.937,538.577,0.0
53416.0,STARLINK-4480,PAYLOAD,2022-11-18 12:31:46,15.08849312,0.0001662,53.2188,133.2955,54.9235,305.1913,0.00014051,1.949e-05,0.0,0 STARLINK-4480,1 53416U 22097AE  22322.52206137  .00001949  00000-0  14051-3 0  9993,2 53416  53.2188 133.2955 0001662  54.9235 305.1913 15.08849312 15929,6917.852,95.437,540.867,538.567,0.0
53416.0,STARLINK-4480,PAYLOAD,2022-11-19 04:25:38,15.08845028,0.0001699,53.2177,130.3202,43.9117,316.201,-8.0036e-05,-1.562e-05,0.0,0 STARLINK-4480,1 53416U 22097AE  22323.18446933 -.00001562  00000-0 -80036-4 0  9996,2 53416  53.2177 130.3202 0001699  43.9117 316.2010 15.08845028 16020,6917.865,95.437,540.905,538.555,0.0
53416.0,STARLINK-4480,PAYLOAD,2022-11-19 10:47:10,15.08838925,0.0001415,53.2177,129.1311,47.4828,312.6284,-1.0009e-05,-4.47e-06,0.0,0 STARLINK-4480,1 53416U 22097AE  22323.44942918 -.00000447  00000-0 -10009-4 0  9993,2 53416  53.2177 129.1311 0001415  47.4828 312.6284 15.08838925 16527,6917.884,95.438,540.7280000000002,538.77,0.0
53416.0,STARLINK-4480,PAYLOAD,2022-11-19 12:22:33,15.08842733,0.0001573,53.2184,128.8355,49.6155,310.4974,9.4282e-06,-1.38e-06,0.0,0 STARLINK-4480,1 53416U 22097AE  22323.51566657 -.00000138  00000-0  94282-5 0  9995,2 53416  53.2184 128.8355 0001573  49.6155 310.4974 15.08842733 16536,6917.871999999999,95.437,540.825,538.649,0.0
53416.0,STARLINK-4480,PAYLOAD,2022-11-20 10:37:56,15.08870573,0.0001585999999999,53.2184,124.6725,44.1464,315.9654,-0.00023213,-3.984e-05,0.0,0 STARLINK-4480,1 53416U 22097AE  22324.44301282 -.00003984  00000-0 -23213-3 0  9996,2 53416  53.2184 124.6725 0001586  44.1464 315.9654 15.08870573 16211,6917.7869999999975,95.436,540.749,538.555,0.0
53416.0,STARLINK-4480,PAYLOAD,2022-11-20 20:10:16,15.08836481,0.0001611,53.2186,122.8884,46.3134,313.7992,1.1616e-05,-1.03e-06,0.0,0 STARLINK-4480,1 53416U 22097AE  22324.84046528 -.00000103  00000-0  11616-4 0  9993,2 53416  53.2186 122.8884 0001611  46.3134 313.7992 15.08836481 16734,6917.891,95.438,540.871,538.6419999999998,0.0
53416.0,STARLINK-4480,PAYLOAD,2022-11-21 04:07:11,15.08836392,0.000156,53.2187,121.4013,47.7463,312.3661,1.3798e-05,-6.8e-07,0.0,0 STARLINK-4480,1 53416U 22097AE  22325.17166595 -.00000068  00000-0  13798-4 0  9990,2 53416  53.2187 121.4013 0001560  47.7463 312.3661 15.08836392 16321,6917.891,95.438,540.836,538.677,0.0
53416.0,STARLINK-4480,PAYLOAD,2022-11-21 10:28:44,15.08836694,0.0001571,53.2188,120.212,47.7561,312.3565,3.3805e-06,-2.34e-06,0.0,0 STARLINK-4480,1 53416U 22097AE  22325.43662649 -.00000234  00000-0  33805-5 0  9997,2 53416  53.2188 120.2120 0001571  47.7561 312.3565 15.08836694 16822,6917.89,95.438,540.842,538.669,0.0
53416.0,STARLINK-4480,PAYLOAD,2022-11-21 16:50:16,15.08840747,0.0001643,53.2188,119.0227,47.5011,312.612,3.4568000000000005e-05,2.62e-06,0.0,0 STARLINK-4480,1 53416U 22097AE  22325.70158293  .00000262  00000-0  34568-4 0  9998,2 53416  53.2188 119.0227 0001643  47.5011 312.6120 15.08840747 16862,6917.878000000002,95.438,540.88,538.606,0.0
53416.0,STARLINK-4480,PAYLOAD,2022-11-22 10:19:30,15.08844811,0.0001779,53.218,115.753,44.5391,315.5744,3.5789e-05,2.82e-06,0.0,0 STARLINK-4480,1 53416U 22097AE  22326.43021843  .00000282  00000-0  35789-4 0  9997,2 53416  53.2180 115.7530 0001779  44.5391 315.5744 15.08844811 16514,6917.866,95.437,540.961,538.5,0.0
53416.0,STARLINK-4480,PAYLOAD,2022-11-22 16:41:03,15.08841099,0.0001746,53.219,114.5627,48.9468,311.1674,-9.8488e-06,-4.45e-06,0.0,0 STARLINK-4480,1 53416U 22097AE  22326.69518220 -.00000445  00000-0 -98488-5 0  9994,2 53416  53.2190 114.5627 0001746  48.9468 311.1674 15.08841099 17011,6917.877,95.437,540.95,538.534,0.0
53416.0,STARLINK-4480,PAYLOAD,2022-11-23 10:10:18,15.0883545,0.0001806,53.2189,111.2917,52.5519,307.5637,5.3849e-06,-2.02e-06,0.0,0 STARLINK-4480,1 53416U 22097AE  22327.42382688 -.00000202  00000-0  53849-5 0  9995,2 53416  53.2189 111.2917 0001806  52.5519 307.5637 15.08835450 16662,6917.894,95.438,541.009,538.51,0.0
53416.0,STARLINK-4480,PAYLOAD,2022-11-23 16:31:50,15.08840776,0.0001811,53.219,110.1024,52.3031,307.8125,4.8448e-05,4.83e-06,0.0,0 STARLINK-4480,1 53416U 22097AE  22327.68878234  .00000483  00000-0  48448-4 0  9998,2 53416  53.2190 110.1024 0001811  52.3031 307.8125 15.08840776 17162,6917.878000000002,95.438,540.996,538.49,0.0
53416.0,STARLINK-4480,PAYLOAD,2022-11-24 10:01:06,15.08823594,0.0001824,53.2193,106.8323,52.3605,307.7552,-2.9301e-05,-7.54e-06,0.0,0 STARLINK-4480,1 53416U 22097AE  22328.41743792 -.00000754  00000-0 -29301-4 0  9990,2 53416  53.2193 106.8323 0001824  52.3605 307.7552 15.08823594 17274,6917.931,95.439,541.057,538.534,0.0
53416.0,STARLINK-4480,PAYLOAD,2022-11-24 13:11:52,15.08828197,0.0001715,53.2188,106.2366,49.9905,310.1237,7.237999999999997e-06,-1.73e-06,0.0,0 STARLINK-4480,1 53416U 22097AE  22328.54991501 -.00000173  00000-0  72380-5 0  9997,2 53416  53.2188 106.2366 0001715  49.9905 310.1237 15.08828197 16836,6917.916,95.438,540.9680000000002,538.595,0.0
53416.0,STARLINK-4480,PAYLOAD,2022-11-24 16:22:38,15.08829297,0.0001727,53.2188,105.642,46.8402,313.2734,1.8496e-05,6e-08,0.0,0 STARLINK-4480,1 53416U 22097AE  22328.68239510  .00000006  00000-0  18496-4 0  9998,2 53416  53.2188 105.6420 0001727  46.8402 313.2734 15.08829297 17313,6917.913000000001,95.438,540.9730000000002,538.5830000000002,0.0
53416.0,STARLINK-4480,PAYLOAD,2022-11-25 01:54:58,15.08822866,0.0001742,53.2188,103.8583,38.8424,321.2693,-4.4642e-05,-9.98e-06,0.0,0 STARLINK-4480,1 53416U 22097AE  22329.07984485 -.00000998  00000-0 -44642-4 0  9994,2 53416  53.2188 103.8583 0001742  38.8424 321.2693 15.08822866 16918,6917.933000000001,95.439,541.003,538.5930000000002,0.0
53416.0,STARLINK-4480,PAYLOAD,2022-11-25 09:51:57,15.08794455,0.0001729,53.2189,102.3723,46.512,313.6016,-0.0003208,-5.384e-05,0.0,0 STARLINK-4480,1 53416U 22097AE  22329.41107828 -.00005384  00000-0 -32080-3 0  9996,2 53416  53.2189 102.3723 0001729  46.5120 313.6016 15.08794455 16964,6918.02,95.44,541.081,538.688,0.0
53416.0,STARLINK-4480,PAYLOAD,2022-11-25 17:48:50,15.08828517,0.0001906,53.2196,100.8853,43.5824,316.5319,-1.5767e-05,-5.39e-06,0.0,0 STARLINK-4480,1 53416U 22097AE  22329.74225510 -.00000539  00000-0 -15767-4 0  9992,2 53416  53.2196 100.8853 0001906  43.5824 316.5319 15.08828517 17016,6917.915,95.438,541.099,538.462,0.0
53416.0,STARLINK-4480,PAYLOAD,2022-11-26 09:42:41,15.08837004,0.0001813,53.2181,97.9103,34.1025,326.0083,0.00013498,1.861e-05,0.0,0 STARLINK-4480,1 53416U 22097AE  22330.40464821  .00001861  00000-0  13498-3 0  9992,2 53416  53.2181  97.9103 0001813  34.1025 326.0083 15.08837004 17116,6917.89,95.438,541.009,538.5,0.0
53416.0,STARLINK-4480,PAYLOAD,2022-11-26 17:39:36,15.08845937,0.000182,53.2193,96.4233,41.8048,318.3083,0.00019365,2.796e-05,0.0,0 STARLINK-4480,1 53416U 22097AE  22330.73584194  .00002796  00000-0  19365-3 0  9991,2 53416  53.2193  96.4233 0001820  41.8048 318.3083 15.08845937 17168,6917.861999999999,95.437,540.986,538.4680000000002,0.0
53416.0,STARLINK-4480,PAYLOAD,2022-11-27 07:58:04,15.08832534,0.0001878,53.2194,93.7471,35.2736,324.838,0.00046522,7.122e-05,0.0,0 STARLINK-4480,1 53416U 22097AE  22331.33200020  .00007122  00000-0  46522-3 0  9994,2 53416  53.2194  93.7471 0001878  35.2736 324.8380 15.08832534 17258,6917.903,95.438,541.067,538.469,0.0
53416.0,STARLINK-4480,PAYLOAD,2022-11-27 15:55:00,15.08843887,0.0001851,53.2194,92.2596,35.7438,324.3678,0.00030123,4.51e-05,0.0,0 STARLINK-4480,1 53416U 22097AE  22331.66319937  .00004510  00000-0  30123-3 0  9996,2 53416  53.2194  92.2596 0001851  35.7438 324.3678 15.08843887 17769,6917.869000000002,95.437,541.014,538.453,0.0
53416.0,STARLINK-4480,PAYLOAD,2022-11-28 01:27:20,15.08831783,0.0001902,53.2194,90.4766,36.9592,323.1531,0.00017861,2.555e-05,0.0,0 STARLINK-4480,1 53416U 22097AE  22332.06065142  .00002555  00000-0  17861-3 0  9998,2 53416  53.2194  90.4766 0001902  36.9592 323.1531 15.08831783 17362,6917.906,95.438,541.086,538.455,0.0
53416.0,STARLINK-4480,PAYLOAD,2022-11-28 14:10:24,15.08848095,0.0002053,53.2197,88.0976,41.5315,318.5833,-7.6832e-05,-1.511e-05,0.0,0 STARLINK-4480,1 53416U 22097AE  22332.59056651 -.00001511  00000-0 -76832-4 0  9998,2 53416  53.2197  88.0976 0002053  41.5315 318.5833 15.08848095 17440,6917.856,95.437,541.141,538.3,0.0
